#dP2024  8 12  0  0  0.00000000      97 __u+U IGS20 FIT  IAC
## 2327  86400.00000000   900.00000000 60534 0.0000000000000
+  119   C06C07C08C09C10C11C12C13C14C16C19C20C21C22C23C24C25
+        C26C27C28C29C30C32C33C34C35C36C37C38C39C40C41C42C43
+        C44C45E02E03E04E05E06E07E08E09E10E11E12E13E14E15E18
+        E19E21E24E25E26E27E29E30E31E33E34E36G02G03G04G05G06
+        G07G08G09G10G11G12G13G14G15G16G17G18G19G20G21G22G23
+        G24G25G26G27G28G29G30G31G32J02J03J04R01R02R03R04R05
+        R07R08R09R11R12R14R15R16R17R18R19R20R21R22R24R25R26
++         7  7  7  7  7  8  6  7  7  7  6  6  5  5  5  5  5
++         5  5  5  5  6  6  5  6  6  6  6  6  6  6  5  6  6
++         6  6  4  4  4  4  4  4  4  4  4  4  4  4  4  5  4
++         4  4  4  4  4  4  4  4  4  4  4  4  3  3  3  4  3
++         3  3  3  3  3  3  4  3  4  3  3  3  3  3  3  3  4
++         4  3  3  3  3  3  3  3  3 11 11 11  8  7  7  6  6
++         6  6  6  6  7  7  7  6  6  9  7  8  6  6  6  7  8
%c M  cc GPS ccc cccc cccc cccc cccc ccccc ccccc ccccc ccccc
%c cc cc ccc ccc cccc cccc cccc cccc ccccc ccccc ccccc ccccc
%f  1.2500000  1.025000000  0.00000000000  0.000000000000000
%f  0.0000000  0.000000000  0.00000000000  0.000000000000000
%i    0    0    0    0      0      0      0      0         0
%i    0    0    0    0      0      0      0      0         0
/* INFORMATION & ANALYSIS CENTER (IAC)            FINAL DATA
/* S/V CLOCKS ARE ALIGNED TO GNSS TIME                      
/* G:C1WC2W R:C1PC2P E:C1XC5X C:C2IC6I J:C1CC2S             
/* PCV:IGS20_2317 OL/AL:FES2004  NONE     YN ORB:CoN CLK:CoN
*  2024 08 12 11  0  0.00000000
PC06  -1872.986878  28665.254392  31045.108833    674.891098
PC07 -17487.666915  30867.550331 -22827.293953   -467.783069
PC08  -9294.842193  40842.240099  -3447.428400   -416.692249
PC09   7664.876198  33459.063305  25389.581019   -169.091559
PC10 -10575.503899  31017.264721 -26437.318450   -122.597850
PC11   8690.262534 -13145.514874  23097.113534    708.906029
PC12  24333.570084   -698.332889  13670.502233   -265.898251
PC13  -4234.593359  41683.396112   3264.786375    437.722389
PC14  15905.614896 -21313.721154  -8352.519027    921.021898
PC16  -3531.849943  27309.137611  32338.784856   -723.685875
PC19  -7989.080724  21309.793691  16182.469277   -925.104978
PC20 -20697.391791  18724.005181    912.032554   -793.095116
PC21  22062.273039  -4384.713076  16501.497741   -944.166512
PC22  10102.914232  11850.993327  23143.030889     89.942254
PC23 -11735.212319 -23399.524298   9689.431949   -813.360825
PC24  12237.700502 -14520.216264 -20463.598329    858.309124
PC25   -177.273267 -26812.023489  -7781.028447    476.523946
PC26  17034.568275   5924.953233 -21301.475700   -333.192016
PC27 -26841.612760  -5422.033183  -5392.449087    353.779119
PC28 -21349.998947 -14945.382707   9994.073213    273.201748
PC29   1148.091692  16789.177665 -22264.914493    320.783749
PC30 -19071.676852   7975.383475 -18748.613487   -163.006083
PC32 -22009.562320   4478.792908 -16567.408126   -700.045362
PC33   7907.045922 -21377.334481 -16094.106463   -966.303702
PC34  17676.556968  -9064.818014  19590.345101    497.466215
PC35  21558.261347  14378.790643 -10409.014851    289.235143
PC36   -204.984933  26882.657797   7490.418439    158.816521
PC37 -16909.346821  -6347.049246  21294.648612   -909.639093
PC38 -13621.263513  37723.118601 -12685.426312    172.822924
PC39  -9187.679994  23036.687488  34189.680488     -9.510509
PC40 -24587.030287  24910.143215 -23700.819243    -85.215778
PC41  -9370.958576 -12504.267618 -23075.298853   -926.477713
PC42  21407.146219 -17852.255174    913.454883   -462.347970
PC43      1.837141 -16678.951236  22360.053951     82.062619
PC44  27065.912098   4476.173366   5163.024851    560.957621
PC45  11355.410393  23708.508406  -9325.855948   -116.100696
PE02 -18910.387558  17231.899636  14880.111682    150.726692
PE03 -26350.633144   9645.405117   9441.125306   -133.147532
PE04   8684.234470 -16905.567920 -22687.406019     -6.333746
PE05 -28028.196753  -3102.182190  -9009.535416   4774.423789
PE06  -2766.536965 -16882.281703 -24170.840318    -14.562195
PE07  12970.008919  14262.371956  22459.135470   -136.162101
PE08  -9709.194715  16664.180750  22455.031286   -317.926570
PE09 -12893.977279 -14159.749987 -22577.070177   -549.785673
PE10  -8797.713185 -25365.319237  12470.266477   -647.871389
PE11 -16147.474541 -24679.743750   2484.102986   2068.538847
PE12   -835.873700 -22318.766284  19413.322540  -1163.519210
PE13  15825.856168  24823.224839  -3081.078439    -23.766920
PE14 -26611.895208  -7016.190311  11700.632452    162.390538
PE15    360.215479  21961.730512 -19840.100385   -120.452853
PE18  15514.515450  13350.250767 -17368.815360    423.758243
PE19  27330.472853  -8335.512281  -7719.519803    444.310869
PE21  17027.739545   2673.855108 -24058.402030   -610.651098
PE24  -4934.692111 -21930.093342  19258.460076   -926.259051
PE25 -16868.559841  -3155.204361  24128.206663      7.912469
PE26  21832.496806  12589.067533  15518.013158    539.460002
PE27   5110.056724  21755.185699 -19400.436317   -424.357342
PE29  28184.385967   2943.929523   8560.329648    -22.288487
PE30  -9749.079058  27743.257893  -3349.906009   -603.704118
PE31   9654.274458 -27777.175147   3388.024986    -32.297102
PE33  15355.997444  -5803.299489  24628.104283     14.546271
PE34 -15077.078349   6277.889739 -24695.818382   -128.017880
PE36 -21763.823095 -13145.678674 -15158.189146   -268.047451
PG02  21729.406399  11933.320592  10430.287067   -380.515422
PG03  14990.821313   1079.210987  21720.526668    496.921506
PG04  25663.123562   1493.244192   6982.804200    422.629150
PG05  -7870.659885 -17290.826459 -18714.425175   -182.945945
PG06    231.473250 -19116.916004  18452.654987    103.309035
PG07  16068.024263  -3455.084814 -20427.523040    -53.087954
PG08  19494.607918   8022.876864 -16521.248688    312.563208
PG09  25149.174233  -7706.483113  -3984.835655    311.030667
PG10 -10324.132070  24195.407277  -1741.467179    -91.772493
PG11 -11298.303310 -23064.301621   6931.035989   -720.273723
PG12 -14147.044448  -5256.511222  21575.589415   -529.750688
PG13 -11237.637274 -13515.117915 -20205.177467    670.333016
PG14  13172.528446 -22253.844603  -5476.394895    470.644415
PG15 -20262.179804  -6175.205569 -16643.287822    191.718653
PG16   3394.807323  20295.157506 -16873.642415   -210.721869
PG17  15751.878702 -13504.145681  17098.575011    656.553037
PG18 -15222.229673   4163.075783 -21380.238408   -645.474397
PG19   6506.514805 -14791.936632  20835.822951    523.508847
PG20  -2827.086244 -24458.460204 -10089.041688    371.762439
PG21  21208.021929  16225.617557   5178.196917    103.646759
PG22   9336.186328 -24864.282912   3349.275603    -50.388336
PG23 -15351.503777  16729.596678 -13573.263258    295.534551
PG24 -21555.300935 -13902.890503   7231.223224   -486.034496
PG25 -16834.411577   7530.844920  18682.545075    499.237468
PG26  -3294.949459  25681.462810  -5103.404064    102.036615
PG27   8740.580510  13639.908065 -21406.165522    -32.903640
PG28  -1961.689141  18141.630290  19288.693264   -369.467468
PG29 -26463.434326   2895.128647   -722.309778   -584.507017
PG30   8185.607554 -14120.829132 -20760.098992   -341.351159
PG31   7840.079912  22541.593529  11013.723175   -225.935337
PG32 -13313.503774  14848.741669  17655.758695   -606.332354
PJ02 -34102.116864  24153.816970  11024.540841     -0.759998
PJ03 -23250.224257  18544.161890 -25273.039091     -1.803930
PJ04 -25225.139395  33668.477995   8737.910658     22.568826
PR01  20400.755964 -14883.435283  -3564.096912     94.272625
PR02   9375.731263 -15194.097125 -18209.130327    -24.096025
PR03  -7930.166568  -7773.796165 -22917.583619    105.492352
PR04 -20247.538804   3684.047114 -15035.214090    249.580347
PR05 -21881.197543  13052.823491    921.507450    135.971561
PR07   8623.521604   7351.415490  22892.892801     88.636448
PR08  20385.189984  -3928.969945  14902.147940     -6.330619
PR09   -950.373144  25190.575318   4208.474488    202.966793
PR11  10666.687777   6916.603364 -22102.729499     15.118383
PR12   8914.360219 -14362.782294 -19076.055824     43.549469
PR14  -6710.261738 -21090.064997  12680.625558     26.812754
PR15 -10925.648515  -5094.118910  22503.776104     76.928745
PR16  -8811.411340  14215.272192  19290.852065     28.185154
PR17 -18146.393358 -15311.443165   9398.837724    112.793812
PR18 -22554.043845  -9539.687753  -7056.857532    156.643343
PR19 -16906.656879   -559.361774 -19099.769769   -287.283527
PR20   1807.537534  12768.111592 -22007.714440   -117.542630
PR21  17636.723733  15489.748758  -9940.054118   -125.335261
PR22  22317.814239   9274.137083   8191.965753     70.988451
PR24  -2680.511585 -13279.658223  21633.838895    -67.516357
PR25  17649.716330  16032.082845  -9020.850641   -100.165706
PR26  19651.792248  -3055.645796  15976.319066 999999.999999
EOF
